ONEWEB-0709             
1 55172U 23004AJ  25203.60228803  .00000241  00000+0  64504-3 0  9998
2 55172  87.8814  86.7884 0002125  52.9708 307.1614 13.11414435122677
ONEWEB-0710             
1 55173U 23004AK  25204.55203484 -.00000024  00000+0 -96057-4 0  9992
2 55173  87.9037  71.2952 0001585  83.3690 276.7622 13.17649048124306
ONEWEB-0711             
1 55174U 23004AL  25204.18383938  .00000198  00000+0  52385-3 0  9990
2 55174  87.8814  86.6397 0001078  93.6648 266.4603 13.11418888122725
ONEWEB-0713             
1 55175U 23004AM  25204.43138444  .00000499  00000+0  13731-2 0  9994
2 55175  87.8812  86.5979 0001534  83.2339 276.8964 13.11416914122732
ONEWEB-0715             
1 55176U 23004AN  25204.42630130  .00000427  00000+0  11678-2 0  9992
2 55176  87.8813  86.5996 0001726  66.1782 293.9527 13.11416997122789
ONEWEB-0716             
1 55177U 23004AP  25204.39341375 -.00000002  00000+0 -39511-4 0  9998
2 55177  87.9037  71.3269 0002016  83.5166 276.6195 13.17649266124285
ONEWEB-0717             
1 55178U 23004AQ  25204.52841022  .00000012  00000+0 -31485-5 0  9991
2 55178  87.9043  71.2591 0001017  87.2717 272.8531 13.17648404124356
ONEWEB-0719             
1 55179U 23004AR  25204.15885177  .00000066  00000+0  13712-3 0  9999
2 55179  87.9038  71.3163 0001915  87.5618 272.5733 13.17649538124256
ONEWEB-0530             
1 55796U 23029A   25204.38173746  .00000067  00000+0  13223-3 0  9996
2 55796  87.9288 339.9873 0001665 113.9352 246.1956 13.20772030118457
ONEWEB-0534             
1 55797U 23029B   25204.36911771  .00000021  00000+0  20563-4 0  9999
2 55797  87.9286 339.9970 0001991  98.1845 261.9514 13.20771167118430
ONEWEB-0556             
1 55798U 23029C   25204.37543161  .00000078  00000+0  15989-3 0  9992
2 55798  87.9290 339.9883 0002386 114.1620 245.9763 13.20772380118434
ONEWEB-0562             
1 55799U 23029D   25204.43856445 -.00000067  00000+0 -19721-3 0  9990
2 55799  87.9284 339.9678 0001958 126.4286 233.7028 13.20770581118438
ONEWEB-0563             
1 55800U 23029E   25204.35648756  .00000004  00000+0 -21480-4 0  9994
2 55800  87.9290 339.9999 0002148  95.8071 264.3307 13.20770595118410
ONEWEB-0564             
1 55801U 23029F   25204.35018198  .00000024  00000+0  27475-4 0  9997
2 55801  87.9277 339.9886 0001722 109.5579 250.5741 13.20770659118458
ONEWEB-0638             
1 55802U 23029G   25203.49859437  .00000255  00000+0  65242-3 0  9990
2 55802  87.9062 355.3663 0002123 109.0070 251.1289 13.14502342116089
ONEWEB-0639             
1 55803U 23029H   25204.44192197 -.00000044  00000+0 -14337-3 0  9997
2 55803  87.9227  10.3344 0002849  78.3363 281.8090 13.19725878116238
ONEWEB-0640             
1 55804U 23029J   25204.49763680  .00000146  00000+0  36007-3 0  9993
2 55804  87.9058 355.1548 0002494 103.1694 256.9714 13.14503271116914
ONEWEB-0641             
1 55805U 23029K   25204.20973032  .00000000  00000+0 -32047-4 0  9998
2 55805  87.9225  10.3521 0002000  87.3225 272.8137 13.19726950116213
ONEWEB-0642             
1 55806U 23029L   25204.20501201  .00000017  00000+0  10210-4 0  9999
2 55806  87.9224  10.3906 0002500  74.6128 285.5281 13.19724929116200
ONEWEB-0643             
1 55807U 23029M   25204.16303712  .00000121  00000+0  29242-3 0  9992
2 55807  87.9059 355.2041 0002047  73.3921 286.7433 13.14503488116876
ONEWEB-0644             
1 55808U 23029N   25203.82118309  .00000009  00000+0 -10031-4 0  9994
2 55808  87.9229  10.4723 0002190  80.9077 279.2303 13.19725966116154
ONEWEB-0645             
1 55809U 23029P   25204.19631076 -.00000052  00000+0 -16299-3 0  9997
2 55809  87.9207  10.3909 0002192  93.4649 266.6735 13.19723654116209
ONEWEB-0646             
1 55810U 23029Q   25204.52959809  .00000012  00000+0 -14362-5 0  9999
2 55810  87.9211  10.3158 0001892  85.1238 275.0111 13.19724647116238
ONEWEB-0648             
1 55811U 23029R   25203.97908548 -.00000215  00000+0 -61432-3 0  9996
2 55811  87.9056 355.2162 0002723  85.9289 274.2152 13.14501140116850
ONEWEB-0649             
1 55812U 23029S   25204.18920685  .00000032  00000+0  47738-4 0  9996
2 55812  87.9222  10.3761 0002312  87.4457 272.6940 13.19725898116229
ONEWEB-0650             
1 55813U 23029T   25204.48773348  .00000082  00000+0  17182-3 0  9996
2 55813  87.9225  10.3270 0001970  87.6852 272.4506 13.19726289116230
ONEWEB-0652             
1 55814U 23029U   25203.50334725  .00000123  00000+0  29608-3 0  9993
2 55814  87.9060 355.3208 0001656  98.4416 261.6901 13.14503316116056
ONEWEB-0653             
1 55815U 23029V   25204.17254565  .00000223  00000+0  56673-3 0  9994
2 55815  87.9063 355.1779 0001864 103.0517 257.0820 13.14503722116866
ONEWEB-0654             
1 55816U 23029W   25204.16778660  .00000158  00000+0  39091-3 0  9993
2 55816  87.9055 355.1783 0001618 106.8455 253.2852 13.14501559116883
ONEWEB-0656             
1 55817U 23029X   25203.35900798  .00000026  00000+0  31361-4 0  9990
2 55817  87.9291 340.1277 0001577 111.1239 249.0063 13.20773103117613
ONEWEB-0657             
1 55818U 23029Y   25204.17973493  .00000065  00000+0  13091-3 0  9996
2 55818  87.9223  10.3931 0001104  79.9589 280.1668 13.19725866116197
ONEWEB-0658             
1 55819U 23029Z   25204.17499017  .00000127  00000+0  28429-3 0  9992
2 55819  87.9228  10.3274 0002137  81.0490 279.0884 13.19726656116202
ONEWEB-0660             
1 55820U 23029AA  25204.45005165 -.00000143  00000+0 -42049-3 0  9996
2 55820  87.9054 355.0930 0002177  96.6340 263.5038 13.14501301116920
ONEWEB-0661             
1 55821U 23029AB  25204.18047163  .00000346  00000+0  89770-3 0  9996
2 55821  87.9060 355.2180 0002131  99.1895 260.9476 13.14502011116858
ONEWEB-0662             
1 55822U 23029AC  25203.98700004 -.00000235  00000+0 -66965-3 0  9994
2 55822  87.9058 355.2631 0002182  94.4268 265.7111 13.14501286116891
ONEWEB-0663             
1 55823U 23029AD  25203.41402984  .00000126  00000+0  27730-3 0  9993
2 55823  87.9293 340.1710 0002325  94.1655 265.9744 13.20840952117618
ONEWEB-0664             
1 55824U 23029AE  25203.42215942  .00000099  00000+0  21231-3 0  9990
2 55824  87.9291 340.1919 0002071 107.8925 252.2434 13.20771294117615
ONEWEB-0665             
1 55825U 23029AF  25204.17731598  .00000281  00000+0  72451-3 0  9997
2 55825  87.9059 355.1928 0002085  93.6634 266.4734 13.14503536116870
ONEWEB-0666             
1 55826U 23029AG  25203.41584492  .00000025  00000+0  28963-4 0  9999
2 55826  87.9290 340.1815 0001111  93.3966 266.7294 13.20771995117622
ONEWEB-0667             
1 55827U 23029AH  25203.63680449  .00000099  00000+0  21071-3 0  9996
2 55827  87.9281 340.0678 0002093  99.2861 260.8509 13.20771428117645
ONEWEB-0669             
1 55828U 23029AJ  25203.93509098 -.00000029  00000+0 -10200-3 0  9997
2 55828  87.9287 340.0457 0001702 120.3277 239.8025 13.20770190118364
ONEWEB-0670             
1 55829U 23029AK  25204.15510773 -.00000066  00000+0 -21243-3 0  9995
2 55829  87.9061 355.2164 0002153 102.8781 257.2590 13.14503730116898
ONEWEB-0671             
1 55830U 23029AL  25204.17025708  .00000078  00000+0  16353-3 0  9995
2 55830  87.9223  10.3874 0002041  95.4928 264.6437 13.19726122116195
ONEWEB-0672             
1 55831U 23029AM  25204.38489131  .00000056  00000+0  10629-3 0  9999
2 55831  87.9288 339.9422 0001571 101.0311 259.0999 13.20773372118423
ONEWEB-0673             
1 55832U 23029AN  25204.44982872  .00000057  00000+0  10980-3 0  9998
2 55832  87.9227  10.2950 0001962  86.8989 273.2368 13.19725302116252
ONEWEB-0674             
1 55833U 23029AP  25204.42786558  .00000085  00000+0  19459-3 0  9991
2 55833  87.9060 355.1474 0002177 105.5598 254.5772 13.14501738116907
ONEWEB-0675             
1 55834U 23029AQ  25204.54144802 -.00000005  00000+0 -44500-4 0  9995
2 55834  87.9220  10.3251 0001602  84.0139 276.1177 13.19725181116288
ONEWEB-0720             
1 55835U 23029AR  25204.15445501  .00000062  00000+0  12344-3 0  9994
2 55835  87.9225  10.3992 0002250  87.3564 272.7826 13.19727528116138
ONEWEB-0537             
1 56046U 23043A   25203.74777221 -.00000052  00000+0 -16875-3 0  9990
2 56046  87.9061 294.4256 0001755  98.1704 261.9626 13.16595546116525
ONEWEB-0538             
1 56047U 23043B   25203.51344229 -.00000116  00000+0 -33720-3 0  9993
2 56047  87.9054 294.4888 0001958  91.8109 268.3246 13.16593281115592
ONEWEB-0546             
1 56048U 23043C   25203.50077098  .00000067  00000+0  14093-3 0  9995
2 56048  87.9063 294.4683 0001318 106.0248 254.1028 13.16593616115581
ONEWEB-0547             
1 56049U 23043D   25204.57564835 -.00000024  00000+0 -90126-4 0  9991
2 56049  87.9271 309.5307 0002010  93.7261 266.4103 13.21829340115729
ONEWEB-0548             
1 56050U 23043E   25204.21007561 -.00000005  00000+0 -46306-4 0  9992
2 56050  87.9048 294.3583 0002314 110.4811 249.6569 13.16592338116587
ONEWEB-0549             
1 56051U 23043F   25204.56696470 -.00001838  00000+0 -44817-2 0  9992
2 56051  87.9276 309.5465 0002097  90.4966 269.6409 13.21834689115729
ONEWEB-0550             
1 56052U 23043G   25203.57032560  .00000029  00000+0  39328-4 0  9999
2 56052  87.9276 309.7382 0001965 104.7079 255.4273 13.21825610115598
ONEWEB-0551             
1 56053U 23043H   25204.35939113 -.00000055  00000+0 -18051-3 0  9997
2 56053  87.9081 324.8075 0002075  93.8622 266.2746 13.15547081114078
ONEWEB-0552             
1 56054U 23043J   25204.24528902  .00000086  00000+0  17603-3 0  9990
2 56054  87.9275 309.6131 0002251  96.9033 263.2357 13.21826139115688
ONEWEB-0553             
1 56055U 23043K   25203.81110620 -.00000129  00000+0 -37062-3 0  9998
2 56055  87.9054 294.4278 0001688 107.6003 252.5313 13.16594766116548
ONEWEB-0554             
1 56056U 23043L   25204.17842981  .00000077  00000+0  16768-3 0  9991
2 56056  87.9050 294.3817 0002137 107.0992 253.0373 13.16595110116573
